STARLINK-2583           
1 48439U 21040M   24003.72130067 -.00000147  00000+0  90330-5 0  9992
2 48439  53.0546 154.8592 0001168  89.4003 270.7119 15.06386315147936
STARLINK-2682           
1 48440U 21040N   24003.71761324 -.00000444  00000+0 -10914-4 0  9999
2 48440  53.0549 154.8754 0001308  90.2545 269.8594 15.06391744146654
STARLINK-2702           
1 48441U 21040P   24003.64757835 -.00000263  00000+0  12463-5 0  9994
2 48441  53.0547 155.1889 0001273  87.0636 273.0499 15.06390353146647
STARLINK-2644           
1 48442U 21040Q   24003.64389675 -.00000531  00000+0 -16732-4 0  9999
2 48442  53.0529 155.2079 0001418  82.9652 277.1499 15.06390944146644
STARLINK-2663           
1 48443U 21040R   24003.70655074 -.00000329  00000+0 -32280-5 0  9998
2 48443  53.0533 154.9266 0001193  96.5259 263.5866 15.06389892146656
STARLINK-2645           
1 48444U 21040S   24003.70287024 -.00000679  00000+0 -26670-4 0  9998
2 48444  53.0539 154.9427 0001318  88.5361 271.5779 15.06391809146659
STARLINK-2634           
1 48445U 21040T   24003.69918417 -.00000952  00000+0 -45007-4 0  9993
2 48445  53.0546 154.9579 0001384  95.5118 264.6029 15.06394250146651
STARLINK-2247           
1 48446U 21040U   24003.62916777  .00004041  00000+0  29022-3 0  9993
2 48446  53.0536 155.2738 0001468  75.9765 284.1387 15.06372683146644
STARLINK-2269           
1 48447U 21040V   24003.69182325  .00004407  00000+0  31463-3 0  9993
2 48447  53.0540 154.9871 0001387  73.2773 286.8368 15.06394972146658
STARLINK-2632           
1 48448U 21040W   24003.72499930  .00000166  00000+0  30012-4 0  9999
2 48448  53.0543 154.9321 0001261  78.1492 281.9638 15.06390898146654
STARLINK-2655           
1 48449U 21040X   24003.68812383 -.00000408  00000+0 -84750-5 0  9996
2 48449  53.0538 155.0098 0001191 100.1718 259.9406 15.06396951146655
STARLINK-2660           
1 48450U 21040Y   24003.68718106 -.00000075  00000+0  13882-4 0  9992
2 48450  53.0538 155.0416 0001203  87.4788 272.6339 15.06392181146657
STARLINK-2652           
1 48451U 21040Z   24003.68444099 -.00002071  00000+0 -12019-3 0  9999
2 48451  53.0539 155.0601 0001613  59.0837 301.0310 15.06386687146650
STARLINK-2703           
1 48452U 21040AA  24003.68074944  .00000408  00000+0  46314-4 0  9994
2 48452  53.0539 155.0116 0001322  78.1162 281.9975 15.06392624146653
STARLINK-2620           
1 48453U 21040AB  24003.67707297 -.00000336  00000+0 -36515-5 0  9993
2 48453  53.0551 155.0611 0001429  80.4063 279.7088 15.06396563146658
STARLINK-2654           
1 48454U 21040AC  24003.73972960 -.00000624  00000+0 -23029-4 0  9997
2 48454  53.0542 154.7791 0001266  75.8172 284.2957 15.06390263146660
STARLINK-2497           
1 48455U 21040AD  24003.73605612  .00003353  00000+0  24382-3 0  9997
2 48455  53.0538 154.7951 0001261  84.0974 276.0158 15.06406278146656
STARLINK-2508           
1 48456U 21040AE  24003.73235188 -.00001385  00000+0 -74085-4 0  9996
2 48456  53.0544 154.8050 0001274 101.5520 258.5612 15.06400741146650
STARLINK-2698           
1 48458U 21040AG  24003.74479808 -.00001849  00000+0 -10530-3 0  9997
2 48458  53.0540 159.8425 0001555  95.1956 264.9211 15.06391614147309
STARLINK-2579           
1 48459U 21040AH  24003.73747099 -.00000084  00000+0  13274-4 0  9995
2 48459  53.0544 160.1426 0001146  68.1187 291.9923 15.06393253146593
STARLINK-2582           
1 48460U 21040AJ  24003.68950571 -.00000247  00000+0  23316-5 0  9992
2 48460  53.0547 160.0012 0001205 100.8769 259.2356 15.06391713147096
STARLINK-2693           
1 48461U 21040AK  24003.70423864  .00005316  00000+0  37520-3 0  9997
2 48461  53.0531 159.9366 0001581  77.6181 282.4984 15.06427701146591
STARLINK-2683           
1 48462U 21040AL  24003.75358399 -.00000087  00000+0  13020-4 0  9994
2 48462  53.0535 164.9959 0001240  94.9601 265.1529 15.06391302146524
STARLINK-2689           
1 48463U 21040AM  24003.75997713  .00000545  00000+0  55501-4 0  9992
2 48463  53.0542 164.6868 0001353 103.2022 256.9118 15.06389640146530
STARLINK-2686           
1 48464U 21040AN  24003.73880611 -.00000547  00000+0 -17828-4 0  9993
2 48464  53.0537 164.7826 0001282  90.8295 269.2840 15.06388711146520
STARLINK-2681           
1 48465U 21040AP  24003.74985047  .00001276  00000+0  10453-3 0  9998
2 48465  53.0542 164.7318 0001263  89.9090 270.2044 15.06403026146530
STARLINK-2687           
1 48466U 21040AQ  24003.66877511  .00000086  00000+0  24705-4 0  9990
2 48466  53.0540 165.0966 0001387  88.4610 271.6538 15.06391708146526
STARLINK-2659           
1 48467U 21040AR  24003.76092107  .00000203  00000+0  32534-4 0  9992
2 48467  53.0541 164.6821 0001228  96.8219 263.2910 15.06392327146535
STARLINK-2685           
1 48468U 21040AS  24003.67614526 -.00000847  00000+0 -37989-4 0  9993
2 48468  53.0534 165.0631 0001390  97.4786 262.6361 15.06391769146529
STARLINK-2661           
1 48469U 21040AT  24003.75723600 -.00000461  00000+0 -12099-4 0  9994
2 48469  53.0533 164.7009 0001211  81.1413 278.9713 15.06387897146532
STARLINK-2675           
1 48470U 21040AU  24003.75262719  .00001423  00000+0  11444-3 0  9994
2 48470  53.0539 164.7119 0001267  98.6229 261.4904 15.06388240146522
STARLINK-2684           
1 48471U 21040AV  24003.74617431 -.00000117  00000+0  11070-4 0  9995
2 48471  53.0544 164.7457 0001311  91.4437 268.6702 15.06388992146525
STARLINK-2722           
1 48472U 21040AW  24003.72774996 -.00000123  00000+0  10619-4 0  9999
2 48472  53.0540 164.8311 0001156  81.1007 279.0113 15.06391250146510
STARLINK-2658           
1 48473U 21040AX  24003.76461984  .00001663  00000+0  13051-3 0  9995
2 48473  53.0541 164.6666 0001263  87.2226 272.8907 15.06392633146521
STARLINK-2697           
1 48474U 21040AY  24003.73142901 -.00011127  00000+0 -72866-3 0  9995
2 48474  53.0534 164.8136 0001040  90.5301 269.5807 15.06431045146514
STARLINK-2619           
1 48475U 21040AZ  24003.70194529 -.00000285  00000+0 -21585-6 0  9994
2 48475  53.0539 164.9479 0001312 112.5312 247.5816 15.06390731146512
STARLINK-2723           
1 48476U 21040BA  24003.72407472  .00000726  00000+0  67644-4 0  9993
2 48476  53.0540 164.8436 0001312  89.8375 270.2764 15.06400182146519
STARLINK-2728           
1 48478U 21040BC  24003.70931598  .00001235  00000+0  10178-3 0  9999
2 48478  53.0544 164.9144 0001112  85.4642 274.6474 15.06388778146511
STARLINK-2755           
1 48479U 21040BD  24003.70563437  .00000348  00000+0  42289-4 0  9996
2 48479  53.0532 164.9303 0001263  88.1799 271.9335 15.06388642146512
STARLINK-2690           
1 48480U 21040BE  24003.78485627 -.00000147  00000+0  89946-5 0  9990
2 48480  53.0533 174.5662 0001185  92.7958 267.3167 15.06390069146384
STARLINK-2706           
1 48481U 21040BF  24003.76008377 -.00006755  00000+0 -43574-3 0  9999
2 48481  53.0538 174.9665 0001693  78.3932 281.7247 15.06340615146373
STARLINK-2525           
1 48482U 21040BG  24003.79317223  .00000985  00000+0  85022-4 0  9998
2 48482  53.0535 174.5376 0001301  82.8677 277.2460 15.06393544146385
STARLINK-2531           
1 48483U 21040BH  24003.78948795 -.00000113  00000+0  11319-4 0  9994
2 48483  53.0543 174.5541 0001442  86.7227 273.3927 15.06389974146386
STARLINK-2696           
1 48484U 21040BJ  24003.73423729  .00000133  00000+0  27824-4 0  9994
2 48484  53.0541 175.1562 0001227  86.0027 274.1102 15.06397476146376
STARLINK-2500           
1 48485U 21040BK  24003.73051409  .00000286  00000+0  38121-4 0  9998
2 48485  53.0538 174.8183 0001370  83.7626 276.3519 15.06392803146371
STARLINK-2496           
1 48486U 21040BL  24003.70106596 -.00001000  00000+0 -48264-4 0  9990
2 48486  53.0539 175.2956 0001517 116.1873 243.9272 15.06393656146366
STARLINK-2494           
1 48487U 21040BM  24003.73788681 -.00000070  00000+0  14218-4 0  9992
2 48487  53.0543 174.7828 0001511  85.3281 274.7880 15.06391985146380
STARLINK-2063           
1 48553U 21041A   24003.58215308  .00000487  00000+0  51587-4 0  9992
2 48553  53.0556 105.4843 0001104 106.8992 253.2118 15.06388604145213
STARLINK-2139           
1 48554U 21041B   24003.54428841 -.00000059  00000+0  14916-4 0  9998
2 48554  53.0533 105.1812 0001477  80.2131 279.9024 15.06390626145213
STARLINK-2145           
1 48555U 21041C   24003.61809534  .00000054  00000+0  22511-4 0  9993
2 48555  53.0537 115.3232 0001441  91.7305 268.3849 15.06381303145521
STARLINK-2151           
1 48556U 21041D   24003.54068744 -.00000084  00000+0  13239-4 0  9997
2 48556  53.0548 115.6694 0001434 103.0753 257.0396 15.06387329145060
STARLINK-2155           
1 48557U 21041E   24003.54529239 -.00005292  00000+0 -33663-3 0  9998
2 48557  53.0544 105.6484 0001491  78.0230 282.0926 15.06402987145208
STARLINK-2166           
1 48558U 21041F   24003.54161002 -.00000520  00000+0 -16059-4 0  9999
2 48558  53.0547 105.6657 0001192  92.7122 267.4003 15.06384453144349
STARLINK-2167           
1 48559U 21041G   24003.58953608 -.00002106  00000+0 -12255-3 0  9990
2 48559  53.0536 105.5749 0001239 101.6714 258.4414 15.06397060145208
STARLINK-2186           
1 48561U 21041J   24003.45962811  .00000232  00000+0  34508-4 0  9997
2 48561  53.0547  76.3171 0001396  89.6895 270.4254 15.06389095145616
STARLINK-2187           
1 48562U 21041K   24003.58584112 -.00001096  00000+0 -54721-4 0  9996
2 48562  53.0536 105.4656 0001301  73.1561 286.9570 15.06384206145219
STARLINK-2188           
1 48563U 21041L   24003.53795186 -.00002827  00000+0 -17115-3 0  9995
2 48563  53.0542 105.6813 0001112  88.2450 271.8666 15.06366420145204
STARLINK-2190           
1 48564U 21041M   24003.59689089 -.00001728  00000+0 -97136-4 0  9997
2 48564  53.0530 105.4179 0001379  72.0445 288.0694 15.06391360145218
STARLINK-2191           
1 48565U 21041N   24003.57012463 -.00000998  00000+0 -48154-4 0  9996
2 48565  53.0545 105.2942 0001418  99.0997 261.0152 15.06392297145216
